OBJECT_NAME,OBJECT_ID,EPOCH,MEAN_MOTION,ECCENTRICITY,INCLINATION,RA_OF_ASC_NODE,ARG_OF_PERICENTER,MEAN_ANOMALY,EPHEMERIS_TYPE,CLASSIFICATION_TYPE,NORAD_CAT_ID,ELEMENT_SET_NO,REV_AT_EPOCH,BSTAR,MEAN_MOTION_DOT,MEAN_MOTION_DDOT
SL-14 R/B,1990-018B,2026-07-16T04:11:36.405888,14.82234407,.0016956,82.5216,103.0148,33.7822,326.4469,0,U,20511,999,94161,.22587E-4,.204E-5,0
HST,1990-037B,2026-07-16T05:12:59.861664,15.31066694,.0002182,28.4722,242.1156,113.0880,246.9946,0,U,20580,999,79302,.95693E-4,.3185E-4,0
SL-16 R/B,1990-046B,2026-07-15T22:21:28.988928,14.15025153,.0012387,70.9987,28.5771,113.0227,247.2203,0,U,20625,999,86653,.16082E-3,.264E-5,0
COSMOS 2084,1990-055A,2026-07-16T03:22:53.156064,15.06225774,.0008207,62.7882,257.2591,319.0540,40.9944,0,U,20663,999,95566,.67316E-4,.789E-5,0
SL-6 R/B(2),1990-055D,2026-07-16T05:40:21.080640,15.04090140,.0045304,62.7805,176.5173,9.1305,351.0607,0,U,20666,999,95752,.81239E-4,.945E-5,0
SL-8 R/B,1990-078B,2026-07-15T22:42:01.250784,14.93590351,.0343325,82.9039,135.6316,300.9826,55.8080,0,U,20775,999,82841,.27651E-3,.9752E-4,0
SL-8 R/B,1991-006B,2026-07-16T03:16:10.219296,13.77509348,.0023383,82.9407,74.4958,38.0097,115.0763,0,U,21088,999,78175,.74499E-4,.9E-6,0
OKEAN-3,1991-039A,2026-07-16T02:52:07.018752,15.05437470,.0012473,82.5143,212.3217,251.1524,108.8350,0,U,21397,999,88435,.12097E-3,.1767E-4,0
COSMOS 2151,1991-042A,2026-07-16T03:14:50.154144,15.00514390,.0011869,82.4982,319.7437,352.2930,7.8110,0,U,21422,999,88245,.58492E-4,.765E-5,0
SL-14 R/B,1991-042B,2026-07-16T02:52:41.100960,14.81918315,.0017061,82.4932,99.7644,173.8981,186.2444,0,U,21423,999,87209,.19231E-4,.176E-5,0
ERS-1,1991-050A,2026-07-16T01:54:58.639104,14.39533565,.0031901,98.7796,218.4833,179.1473,180.9774,0,U,21574,999,83420,.67063E-4,.164E-5,0
ARIANE 40 R/B,1991-050F,2026-07-16T02:28:56.339040,14.42972173,.0004122,98.1862,244.3917,59.4453,300.7145,0,U,21610,999,83751,.46915E-4,.115E-5,0
INTERCOSMOS 25,1991-086A,2026-07-16T02:00:30.879072,12.12240627,.1484619,82.6006,232.3233,200.0074,153.6347,0,U,21819,999,51224,.10539E-4,.69E-6,0
SL-8 R/B,1992-008B,2026-07-16T01:38:52.986048,13.75983948,.0035717,82.9272,172.3140,134.2327,295.2034,0,U,21876,999,72707,.80381E-4,.94E-6,0
SL-8 R/B,1992-020B,2026-07-16T03:52:17.126112,13.75550179,.0027931,82.9280,58.3324,300.7035,177.6522,0,U,21938,999,71879,-.51996E-5,.1E-6,0
USA 81,1992-023A,2026-07-16T03:00:35.054208,14.32405104,.0001932,85.0050,57.3014,65.2552,294.8842,0,U,21949,999,11317,.30324E-4,.102E-5,0
COSMOS 2219,1992-076A,2026-07-16T04:37:43.159296,14.14108359,.0018329,71.0611,109.4381,355.9542,4.1430,0,U,22219,999,73654,-.93798E-4,-.226E-5,0
SL-16 R/B,1992-076B,2026-07-16T04:18:59.679360,14.16877753,.0015036,71.0004,277.7073,260.9555,122.3737,0,U,22220,999,74003,.70024E-4,.93E-6,0
COSMOS 2221,1992-080A,2026-07-15T22:56:58.354944,14.96605212,.0015766,82.5046,156.2013,117.9325,242.3495,0,U,22236,999,79997,.70777E-4,.834E-5,0
SL-16 R/B,1992-093B,2026-07-16T03:30:33.446880,14.15465450,.0002239,71.0216,94.5989,132.2455,227.8858,0,U,22285,999,73133,-.1024E-3,-.248E-5,0
COSMOS 2228,1992-094A,2026-07-16T03:38:20.692032,14.97676985,.0016382,82.5188,114.2994,225.7183,134.2697,0,U,22286,999,79528,.64531E-4,.784E-5,0
SL-16 R/B,1993-016B,2026-07-15T16:55:38.263872,14.15312880,.00088228,71.0085,306.3093,137.0399,223.1414,0,U,22566,999,72028,.14002109E-3,.225E-5,0
COSMOS 2242,1993-024A,2026-07-15T22:10:21.180864,14.96986094,.0014709,82.5198,144.0497,229.9287,130.0646,0,U,22626,999,79957,.74146E-4,.881E-5,0
SL-16 R/B,1993-059B,2026-07-16T03:29:30.684192,14.17249367,.00167,70.9901,100.2368,7.1032,353.0325,0,U,22803,999,69773,-.12594E-4,-.74E-6,0
ARIANE 40 R/B,1993-061H,2026-07-16T04:24:56.024064,14.32918759,.0009506,98.4806,263.4367,262.4796,97.5308,0,U,22830,999,71250,.40771E-4,.68E-6,0
COSMOS 2278,1994-023A,2026-07-16T04:08:26.935872,14.14393379,.0009582,71.0522,266.2814,204.0865,155.9810,0,U,23087,999,66297,.45371E-4,.4E-6,0
SL-16 R/B,1994-023B,2026-07-16T03:52:20.561376,14.15024856,.0001394,70.9985,161.0827,124.5523,235.5731,0,U,23088,999,66426,.10607E-3,.158E-5,0
SL-16 R/B,1994-074B,2026-07-16T02:15:51.649056,14.79524746,.0007235,97.6986,222.6096,151.6316,274.3259,0,U,23343,999,70623,.31246E-4,.185E-5,0
SL-16 R/B,1994-077B,2026-07-15T22:50:10.277376,14.15574223,.0004088,70.9821,82.6484,302.7536,57.3192,0,U,23405,999,63438,.63539E-5,-.35E-6,0
ARIANE 40+ R/B,1995-021B,2026-07-16T03:58:00.471072,14.39847862,.0007926,98.4400,266.8199,113.9684,274.3151,0,U,23561,999,63773,.49577E-4,.112E-5,0
SL-16 R/B,1995-058B,2026-07-16T04:14:24.167040,14.15509270,.0014622,71.0209,270.4948,281.5256,78.4225,0,U,23705,999,58603,.13651E-3,.219E-5,0
